0 IRIDIUM 33 DEB
1 37551U 97051XL  13272.49470574  .00382942  00000-0  11322-1 0  1998
2 37551 086.4254 099.5403 0010232 117.8910 272.4375 15.33314577188474
0 IRIDIUM 33 DEB
1 37551U 97051XL  13274.52220704  .00456281  00000-0  12827-1 0  2004
2 37551 086.4237 098.5577 0009982 103.1127 315.9595 15.34613839188789
0 IRIDIUM 33 DEB
1 37551U 97051XL  13274.78279083  .00411172  00000-0  11564-1 0  2014
2 37551 086.4239 098.4310 0009843 102.1474 315.6678 15.34789057188825
0 IRIDIUM 33 DEB
1 37551U 97051XL  13275.97331942  .00793588  00000-0  20966-1 0  2020
2 37551 086.4228 097.8518 0008619 088.6129 065.4767 15.36095341189009
0 IRIDIUM 33 DEB
1 37551U 97051XL  13280.51116602  .00666365  00000-0  15602-1 0  2034
2 37551 086.4217 095.6460 0008200 028.8844 033.1844 15.39878347189708
0 IRIDIUM 33 DEB
1 37551U 97051XL  13282.45382477  .01372729  00000-0  28531-1 0  2049
2 37551 086.4240 094.6879 0011519 007.4138 024.4866 15.42887560190006
0 IRIDIUM 33 DEB
1 37551U 97051XL  13282.45382477  .01372729  00000-0  28531-1 0  2050
2 37551 086.4240 094.6879 0011519 007.4138 024.4866 15.42887560190006
0 IRIDIUM 33 DEB
1 37551U 97051XL  13286.45452145  .01165234  00000-0  18997-1 0  2061
2 37551 086.4165 092.7017 0012473 025.0293 299.3720 15.50011805190623
0 IRIDIUM 33 DEB
1 37551U 97051XL  13286.45452145  .01165234  00000-0  18997-1 0  2072
2 37551 086.4165 092.7017 0012473 025.0293 299.3720 15.50011805190623
0 IRIDIUM 33 DEB
1 37551U 97051XL  13286.45452145  .01165234  00000-0  18997-1 0  2083
2 37551 086.4165 092.7017 0012473 025.0293 299.3720 15.50011805190623
0 IRIDIUM 33 DEB
1 37551U 97051XL  13286.45452145  .01165234  00000-0  18997-1 0  2094
2 37551 086.4165 092.7017 0012473 025.0293 299.3720 15.50011805190623
